[{"OBJECT_NAME":"DONGPO 03","OBJECT_ID":"2022-098G","EPOCH":"2026-03-09T23:33:34.890048","MEAN_MOTION":15.70958192,"ECCENTRICITY":0.00010558,"INCLINATION":97.5452,"RA_OF_ASC_NODE":197.1326,"ARG_OF_PERICENTER":261.4023,"MEAN_ANOMALY":98.7119,"EPHEMERIS_TYPE":0,"CLASSIFICATION_TYPE":"U","NORAD_CAT_ID":53450,"ELEMENT_SET_NO":999,"REV_AT_EPOCH":19946,"BSTAR":0.0010143925,"MEAN_MOTION_DOT":0.00128253,"MEAN_MOTION_DDOT":0},{"OBJECT_NAME":"STARLINK-11733 [DTC]","OBJECT_ID":"2025-107J","EPOCH":"2026-03-09T18:49:56.157600","MEAN_MOTION":15.7086041,"ECCENTRICITY":1.084e-5,"INCLINATION":42.999,"RA_OF_ASC_NODE":97.6008,"ARG_OF_PERICENTER":58.976,"MEAN_ANOMALY":301.1118,"EPHEMERIS_TYPE":0,"CLASSIFICATION_TYPE":"U","NORAD_CAT_ID":64072,"ELEMENT_SET_NO":999,"REV_AT_EPOCH":4731,"BSTAR":0.0016876976,"MEAN_MOTION_DOT":0.00222194,"MEAN_MOTION_DDOT":0}]
